[{"OBJECT_NAME":"STARLINK-35152","OBJECT_ID":"2025-200L","EPOCH":"2026-01-30T22:53:06.518688","MEAN_MOTION":15.05641537,"ECCENTRICITY":6.758e-5,"INCLINATION":97.6012,"RA_OF_ASC_NODE":102.6178,"ARG_OF_PERICENTER":65.2019,"MEAN_ANOMALY":294.9278,"EPHEMERIS_TYPE":0,"CLASSIFICATION_TYPE":"U","NORAD_CAT_ID":65530,"ELEMENT_SET_NO":999,"REV_AT_EPOCH":2345,"BSTAR":0.00017453789,"MEAN_MOTION_DOT":2.458e-5,"MEAN_MOTION_DDOT":0},{"OBJECT_NAME":"STARLINK-35064","OBJECT_ID":"2025-200M","EPOCH":"2026-01-30T18:21:57.650112","MEAN_MOTION":15.0564296,"ECCENTRICITY":0.00012391,"INCLINATION":97.6024,"RA_OF_ASC_NODE":102.4032,"ARG_OF_PERICENTER":91.6789,"MEAN_ANOMALY":268.4579,"EPHEMERIS_TYPE":0,"CLASSIFICATION_TYPE":"U","NORAD_CAT_ID":65531,"ELEMENT_SET_NO":999,"REV_AT_EPOCH":2342,"BSTAR":0.00036941113,"MEAN_MOTION_DOT":5.272e-5,"MEAN_MOTION_DDOT":0},{"OBJECT_NAME":"STARLINK-35170","OBJECT_ID":"2025-200N","EPOCH":"2026-01-30T22:29:10.994784","MEAN_MOTION":15.05632683,"ECCENTRICITY":0.00016286,"INCLINATION":97.6052,"RA_OF_ASC_NODE":102.6386,"ARG_OF_PERICENTER":102.0442,"MEAN_ANOMALY":258.0968,"EPHEMERIS_TYPE":0,"CLASSIFICATION_TYPE":"U","NORAD_CAT_ID":65532,"ELEMENT_SET_NO":999,"REV_AT_EPOCH":2345,"BSTAR":-0.00042907666,"MEAN_MOTION_DOT":-6.244e-5,"MEAN_MOTION_DDOT":0},{"OBJECT_NAME":"STARLINK-35172","OBJECT_ID":"2025-200P","EPOCH":"2026-01-30T18:45:52.399872","MEAN_MOTION":15.05645656,"ECCENTRICITY":0.00014669,"INCLINATION":97.6038,"RA_OF_ASC_NODE":102.3797,"ARG_OF_PERICENTER":92.4096,"MEAN_ANOMALY":267.7299,"EPHEMERIS_TYPE":0,"CLASSIFICATION_TYPE":"U","NORAD_CAT_ID":65533,"ELEMENT_SET_NO":999,"REV_AT_EPOCH":2342,"BSTAR":-8.0605634e-5,"MEAN_MOTION_DOT":-1.224e-5,"MEAN_MOTION_DDOT":0},{"OBJECT_NAME":"STARLINK-35125","OBJECT_ID":"2025-200Q","EPOCH":"2026-01-30T17:22:08.736672","MEAN_MOTION":15.05647985,"ECCENTRICITY":0.000151,"INCLINATION":97.6046,"RA_OF_ASC_NODE":102.3046,"ARG_OF_PERICENTER":96.5392,"MEAN_ANOMALY":263.6006,"EPHEMERIS_TYPE":0,"CLASSIFICATION_TYPE":"U","NORAD_CAT_ID":65534,"ELEMENT_SET_NO":999,"REV_AT_EPOCH":2341,"BSTAR":0.00067785842,"MEAN_MOTION_DOT":9.733e-5,"MEAN_MOTION_DDOT":0},{"OBJECT_NAME":"STARLINK-35133","OBJECT_ID":"2025-200R","EPOCH":"2026-01-30T22:37:10.186464","MEAN_MOTION":15.05654623,"ECCENTRICITY":4.822e-5,"INCLINATION":97.6047,"RA_OF_ASC_NODE":102.6309,"ARG_OF_PERICENTER":83.593,"MEAN_ANOMALY":276.5352,"EPHEMERIS_TYPE":0,"CLASSIFICATION_TYPE":"U","NORAD_CAT_ID":65535,"ELEMENT_SET_NO":999,"REV_AT_EPOCH":2345,"BSTAR":0.00028635867,"MEAN_MOTION_DOT":4.074e-5,"MEAN_MOTION_DDOT":0},{"OBJECT_NAME":"STARLINK-35044","OBJECT_ID":"2025-200S","EPOCH":"2026-01-30T18:17:57.674976","MEAN_MOTION":15.05694457,"ECCENTRICITY":0.00012963,"INCLINATION":97.6017,"RA_OF_ASC_NODE":102.4084,"ARG_OF_PERICENTER":85.8253,"MEAN_ANOMALY":274.3122,"EPHEMERIS_TYPE":0,"CLASSIFICATION_TYPE":"U","NORAD_CAT_ID":65536,"ELEMENT_SET_NO":999,"REV_AT_EPOCH":2342,"BSTAR":0.0007482167,"MEAN_MOTION_DOT":0.00010765,"MEAN_MOTION_DDOT":0},{"OBJECT_NAME":"STARLINK-35136","OBJECT_ID":"2025-200T","EPOCH":"2026-01-30T21:49:18.771456","MEAN_MOTION":15.05654807,"ECCENTRICITY":0.00017069,"INCLINATION":97.6026,"RA_OF_ASC_NODE":102.5192,"ARG_OF_PERICENTER":83.1184,"MEAN_ANOMALY":277.0237,"EPHEMERIS_TYPE":0,"CLASSIFICATION_TYPE":"U","NORAD_CAT_ID":65537,"ELEMENT_SET_NO":999,"REV_AT_EPOCH":2335,"BSTAR":-7.3919934e-5,"MEAN_MOTION_DOT":-1.127e-5,"MEAN_MOTION_DDOT":0},{"OBJECT_NAME":"STARLINK-35144","OBJECT_ID":"2025-200U","EPOCH":"2026-01-30T21:41:20.008320","MEAN_MOTION":15.05649858,"ECCENTRICITY":0.00018924,"INCLINATION":97.6022,"RA_OF_ASC_NODE":102.5256,"ARG_OF_PERICENTER":83.0246,"MEAN_ANOMALY":277.1196,"EPHEMERIS_TYPE":0,"CLASSIFICATION_TYPE":"U","NORAD_CAT_ID":65538,"ELEMENT_SET_NO":999,"REV_AT_EPOCH":2344,"BSTAR":-0.00033144818,"MEAN_MOTION_DOT":-4.84e-5,"MEAN_MOTION_DDOT":0},{"OBJECT_NAME":"STARLINK-35110","OBJECT_ID":"2025-200V","EPOCH":"2026-01-30T22:25:12.532512","MEAN_MOTION":15.05648534,"ECCENTRICITY":1.446e-5,"INCLINATION":97.6056,"RA_OF_ASC_NODE":102.6431,"ARG_OF_PERICENTER":219.4496,"MEAN_ANOMALY":140.672,"EPHEMERIS_TYPE":0,"CLASSIFICATION_TYPE":"U","NORAD_CAT_ID":65539,"ELEMENT_SET_NO":999,"REV_AT_EPOCH":2345,"BSTAR":0.00052254025,"MEAN_MOTION_DOT":7.487e-5,"MEAN_MOTION_DDOT":0},{"OBJECT_NAME":"STARLINK-35052","OBJECT_ID":"2025-200W","EPOCH":"2026-01-30T21:13:25.794048","MEAN_MOTION":15.05648494,"ECCENTRICITY":9.12e-5,"INCLINATION":97.6032,"RA_OF_ASC_NODE":102.5544,"ARG_OF_PERICENTER":82.9462,"MEAN_ANOMALY":277.1869,"EPHEMERIS_TYPE":0,"CLASSIFICATION_TYPE":"U","NORAD_CAT_ID":65540,"ELEMENT_SET_NO":999,"REV_AT_EPOCH":2336,"BSTAR":0.00042148491,"MEAN_MOTION_DOT":6.026e-5,"MEAN_MOTION_DDOT":0},{"OBJECT_NAME":"STARLINK-35087","OBJECT_ID":"2025-200X","EPOCH":"2026-01-30T18:10:00.899904","MEAN_MOTION":15.0566942,"ECCENTRICITY":6.511e-5,"INCLINATION":97.6021,"RA_OF_ASC_NODE":102.4162,"ARG_OF_PERICENTER":143.4411,"MEAN_ANOMALY":216.686,"EPHEMERIS_TYPE":0,"CLASSIFICATION_TYPE":"U","NORAD_CAT_ID":65541,"ELEMENT_SET_NO":999,"REV_AT_EPOCH":2342,"BSTAR":0.00048980201,"MEAN_MOTION_DOT":7.017e-5,"MEAN_MOTION_DDOT":0},{"OBJECT_NAME":"STARLINK-35100","OBJECT_ID":"2025-200Y","EPOCH":"2026-01-30T18:53:51.124992","MEAN_MOTION":15.05661488,"ECCENTRICITY":0.00015879,"INCLINATION":97.6049,"RA_OF_ASC_NODE":102.376,"ARG_OF_PERICENTER":96.931,"MEAN_ANOMALY":263.2097,"EPHEMERIS_TYPE":0,"CLASSIFICATION_TYPE":"U","NORAD_CAT_ID":65542,"ELEMENT_SET_NO":999,"REV_AT_EPOCH":2342,"BSTAR":0.00059383197,"MEAN_MOTION_DOT":8.521e-5,"MEAN_MOTION_DDOT":0},{"OBJECT_NAME":"STARLINK-35105","OBJECT_ID":"2025-200Z","EPOCH":"2026-01-30T17:54:03.269088","MEAN_MOTION":15.05645986,"ECCENTRICITY":0.00011155,"INCLINATION":97.6044,"RA_OF_ASC_NODE":102.4326,"ARG_OF_PERICENTER":34.0692,"MEAN_ANOMALY":326.0606,"EPHEMERIS_TYPE":0,"CLASSIFICATION_TYPE":"U","NORAD_CAT_ID":65543,"ELEMENT_SET_NO":999,"REV_AT_EPOCH":2342,"BSTAR":0.00036826163,"MEAN_MOTION_DOT":5.256e-5,"MEAN_MOTION_DDOT":0},{"OBJECT_NAME":"STARLINK-35267","OBJECT_ID":"2025-207A","EPOCH":"2026-01-30T21:59:19.329216","MEAN_MOTION":15.05649354,"ECCENTRICITY":0.00018549,"INCLINATION":97.6053,"RA_OF_ASC_NODE":101.3644,"ARG_OF_PERICENTER":92.6054,"MEAN_ANOMALY":267.5385,"EPHEMERIS_TYPE":0,"CLASSIFICATION_TYPE":"U","NORAD_CAT_ID":65592,"ELEMENT_SET_NO":999,"REV_AT_EPOCH":2256,"BSTAR":0.00043125323,"MEAN_MOTION_DOT":6.167e-5,"MEAN_MOTION_DDOT":0},{"OBJECT_NAME":"STARLINK-35269","OBJECT_ID":"2025-207B","EPOCH":"2026-01-30T18:00:04.624992","MEAN_MOTION":15.05647554,"ECCENTRICITY":6.725e-5,"INCLINATION":97.6027,"RA_OF_ASC_NODE":101.282,"ARG_OF_PERICENTER":84.6,"MEAN_ANOMALY":275.5304,"EPHEMERIS_TYPE":0,"CLASSIFICATION_TYPE":"U","NORAD_CAT_ID":65593,"ELEMENT_SET_NO":999,"REV_AT_EPOCH":2254,"BSTAR":0.00042877037,"MEAN_MOTION_DOT":6.131e-5,"MEAN_MOTION_DDOT":0},{"OBJECT_NAME":"STARLINK-35191","OBJECT_ID":"2025-207C","EPOCH":"2026-01-30T21:35:23.673120","MEAN_MOTION":15.05658981,"ECCENTRICITY":0.00016164,"INCLINATION":97.6029,"RA_OF_ASC_NODE":101.3885,"ARG_OF_PERICENTER":89.1505,"MEAN_ANOMALY":270.9907,"EPHEMERIS_TYPE":0,"CLASSIFICATION_TYPE":"U","NORAD_CAT_ID":65594,"ELEMENT_SET_NO":999,"REV_AT_EPOCH":2240,"BSTAR":0.00050643657,"MEAN_MOTION_DOT":7.256e-5,"MEAN_MOTION_DDOT":0},{"OBJECT_NAME":"STARLINK-35261","OBJECT_ID":"2025-207D","EPOCH":"2026-01-30T22:23:14.892000","MEAN_MOTION":15.05634771,"ECCENTRICITY":0.00012707,"INCLINATION":97.6059,"RA_OF_ASC_NODE":101.5002,"ARG_OF_PERICENTER":86.6069,"MEAN_ANOMALY":273.5303,"EPHEMERIS_TYPE":0,"CLASSIFICATION_TYPE":"U","NORAD_CAT_ID":65595,"ELEMENT_SET_NO":999,"REV_AT_EPOCH":2258,"BSTAR":-6.2702308e-5,"MEAN_MOTION_DOT":-9.65e-6,"MEAN_MOTION_DDOT":0},{"OBJECT_NAME":"STARLINK-35253","OBJECT_ID":"2025-207E","EPOCH":"2026-01-30T18:35:57.770880","MEAN_MOTION":15.05646462,"ECCENTRICITY":0.00019057,"INCLINATION":97.6045,"RA_OF_ASC_NODE":101.2459,"ARG_OF_PERICENTER":88.2004,"MEAN_ANOMALY":271.9441,"EPHEMERIS_TYPE":0,"CLASSIFICATION_TYPE":"U","NORAD_CAT_ID":65596,"ELEMENT_SET_NO":999,"REV_AT_EPOCH":2234,"BSTAR":0.00018823431,"MEAN_MOTION_DOT":2.656e-5,"MEAN_MOTION_DDOT":0},{"OBJECT_NAME":"STARLINK-35263","OBJECT_ID":"2025-207F","EPOCH":"2026-01-30T18:12:02.411136","MEAN_MOTION":15.05653164,"ECCENTRICITY":0.00010618,"INCLINATION":97.602,"RA_OF_ASC_NODE":101.2699,"ARG_OF_PERICENTER":88.2557,"MEAN_ANOMALY":271.8791,"EPHEMERIS_TYPE":0,"CLASSIFICATION_TYPE":"U","NORAD_CAT_ID":65597,"ELEMENT_SET_NO":999,"REV_AT_EPOCH":2255,"BSTAR":2.1783769e-5,"MEAN_MOTION_DOT":2.54e-6,"MEAN_MOTION_DDOT":0},{"OBJECT_NAME":"STARLINK-35248","OBJECT_ID":"2025-207G","EPOCH":"2026-01-30T17:48:06.450048","MEAN_MOTION":15.05642876,"ECCENTRICITY":9.87e-5,"INCLINATION":97.6047,"RA_OF_ASC_NODE":101.2929,"ARG_OF_PERICENTER":93.0481,"MEAN_ANOMALY":267.0858,"EPHEMERIS_TYPE":0,"CLASSIFICATION_TYPE":"U","NORAD_CAT_ID":65598,"ELEMENT_SET_NO":999,"REV_AT_EPOCH":2255,"BSTAR":0.00018374812,"MEAN_MOTION_DOT":2.591e-5,"MEAN_MOTION_DDOT":0},{"OBJECT_NAME":"STARLINK-35245","OBJECT_ID":"2025-207H","EPOCH":"2026-01-30T22:11:17.981952","MEAN_MOTION":15.05644646,"ECCENTRICITY":9.59e-5,"INCLINATION":97.6045,"RA_OF_ASC_NODE":101.5103,"ARG_OF_PERICENTER":97.6111,"MEAN_ANOMALY":262.5225,"EPHEMERIS_TYPE":0,"CLASSIFICATION_TYPE":"U","NORAD_CAT_ID":65599,"ELEMENT_SET_NO":999,"REV_AT_EPOCH":2258,"BSTAR":0.00031516103,"MEAN_MOTION_DOT":4.489e-5,"MEAN_MOTION_DDOT":0},{"OBJECT_NAME":"STARLINK-35229","OBJECT_ID":"2025-207J","EPOCH":"2026-01-30T18:43:56.110656","MEAN_MOTION":15.05645167,"ECCENTRICITY":0.00018391,"INCLINATION":97.6044,"RA_OF_ASC_NODE":101.2378,"ARG_OF_PERICENTER":80.2563,"MEAN_ANOMALY":279.8872,"EPHEMERIS_TYPE":0,"CLASSIFICATION_TYPE":"U","NORAD_CAT_ID":65600,"ELEMENT_SET_NO":999,"REV_AT_EPOCH":2255,"BSTAR":0.00069547949,"MEAN_MOTION_DOT":9.987e-5,"MEAN_MOTION_DDOT":0}]
